[{"OBJECT_NAME":"OBJECT AS","OBJECT_ID":"2023-085AS","EPOCH":"2026-03-09T22:43:55.521696","MEAN_MOTION":15.33336233,"ECCENTRICITY":0.00083243,"INCLINATION":97.4812,"RA_OF_ASC_NODE":180.8852,"ARG_OF_PERICENTER":80.6036,"MEAN_ANOMALY":279.6147,"EPHEMERIS_TYPE":0,"CLASSIFICATION_TYPE":"U","NORAD_CAT_ID":57044,"ELEMENT_SET_NO":999,"REV_AT_EPOCH":15162,"BSTAR":0.00067677795,"MEAN_MOTION_DOT":0.00021782,"MEAN_MOTION_DDOT":0},{"OBJECT_NAME":"STARLINK-30560","OBJECT_ID":"2023-156L","EPOCH":"2026-03-09T06:47:31.962048","MEAN_MOTION":15.30193311,"ECCENTRICITY":0.00013845,"INCLINATION":53.1606,"RA_OF_ASC_NODE":77.4177,"ARG_OF_PERICENTER":96.4557,"MEAN_ANOMALY":263.6601,"EPHEMERIS_TYPE":0,"CLASSIFICATION_TYPE":"U","NORAD_CAT_ID":58038,"ELEMENT_SET_NO":999,"REV_AT_EPOCH":13624,"BSTAR":1.821e-7,"MEAN_MOTION_DOT":-3.54e-6,"MEAN_MOTION_DDOT":0}]
